FLOCK 1C-8              
1 40040U 14033AG  17316.71657149  .00001022  00000-0  10867-3 0  9997
2 40040  97.9229 232.1292 0012941 147.1232 213.0787 14.91155653184760
FLOCK 1C-3              
1 40041U 14033AH  17316.97913946  .00001113  00000-0  12447-3 0  9993
2 40041  97.9203 229.5027 0013796 157.7817 202.3996 14.88900713184623
POLYITAN-1              
1 40042U 14033AJ  17316.71935197  .00000557  00000-0  66359-4 0  9991
2 40042  97.9141 227.5568 0014974 160.1916 199.9885 14.88214390184515
TIGRISAT                
1 40043U 14033AK  17317.45097550  .00000188  00000-0  35308-4 0  9996
2 40043  97.8351 197.2473 0060218 172.5261 187.6859 14.74053727182825
LEMUR-1                 
1 40044U 14033AL  17317.17834121  .00000215  00000-0  39545-4 0  9997
2 40044  97.8348 196.6842 0059339 174.6169 185.5690 14.73879755182777
AEROCUBE 6A             
1 40045U 14033AM  17317.52679963  .00000472  00000-0  75871-4 0  9995
2 40045  97.8488 198.8976 0058086 167.3789 192.8891 14.74971830182738
AEROCUBE 6B             
1 40046U 14033AN  17317.32322191  .00000398  00000-0  65134-4 0  9990
2 40046  97.8473 198.6166 0057430 167.4081 192.8579 14.74969771182846
UKUBE-1                 
1 40074U 14037F   17317.41608711  .00000600  00000-0  79807-4 0  9998
2 40074  98.3623  79.1861 0003352 299.0427  61.0449 14.83646449181302
BRITE-PL 2              
1 40119U 14049B   17316.87331414  .00000197  00000-0  29998-4 0  9990
2 40119  97.9308  41.9484 0016696 328.1245  31.8957 14.84211771175121
FIREBIRD 4              
1 40378U 15003C   17317.52282478  .00002826  00000-0  12104-3 0  9997
2 40378  99.1117 171.3719 0133200 226.9074 132.0947 15.16282583153635
GRIFEX                  
1 40379U 15003D   17317.55859666  .00002138  00000-0  98547-4 0  9992
2 40379  99.1152 168.5556 0139447 236.3687 122.4171 15.13625602153470
EXOCUBE                 
1 40380U 15003E   17317.16688841  .00001376  00000-0  67675-4 0  9997
2 40380  99.1201 166.5020 0143429 242.8759 115.7778 15.11983135153304
DEORBITSAIL             
1 40719U 15032E   17316.77560564  .00000638  00000-0  99313-4 0  9996
2 40719  97.9635 208.5415 0017346  28.7003 331.5158 14.76231550126243
TIANWANG 1C (TW-1C)     
1 40926U 15051B   17317.53706443  .00012053  00000-0  25219-3 0  9997
2 40926  97.2136 356.0504 0010702 356.6955 141.9940 15.45545962119963
TIANWANG 1B (TW-1B)     
1 40927U 15051C   17317.38875723  .00012300  00000-0  26753-3 0  9998
2 40927  97.2220 355.8514 0011129   8.8497 111.7951 15.44391282119877
TIANWANG 1A (TW-1A)     
1 40928U 15051D   17317.47234421  .00004491  00000-0  12445-3 0  9998
2 40928  97.2118 350.5878 0013383  27.7498  77.9041 15.37381175119622
LEMUR-2-JOEL            
1 40932U 15052C   17315.44163612  .00000391  00000-0 -34665-4 0  9997
2 40932   6.0091 256.3528 0012751 184.2372 175.7736 14.77574948114828
LEMUR-2-CHRIS           
1 40933U 15052D   17312.32506097  .00000336  00000-0 -42446-4 0  9995
2 40933   6.0133 277.2912 0015655 140.7874 219.3278 14.77717338114373
LEMUR-2-JEROEN          
1 40934U 15052E   17317.28884932  .00001028  00000-0  53496-4 0  9998
2 40934   6.0080 248.1674 0010588 195.6726 164.1730 14.77088166115014
LEMUR-2-PETER           
1 40935U 15052F   17316.45413191  .00001072  00000-0  60073-4 0  9990
2 40935   6.0037 255.8858 0010575 178.4009 181.6286 14.76846305114896
EXACTVIEW 9             
1 40936U 15052G   17317.31612023  .00001094  00000-0  64336-4 0  9992
2 40936   6.0018 252.7844 0011369 191.6928 168.2872 14.76321476115010
ATHENOXAT 1             
1 41168U 15077C   17317.39883860  .00003247  00000-0  14421-3 0  9995
2 41168  14.9827 158.9809 0012338 284.7068 279.9104 15.12177219105650
GALASSIA                
1 41170U 15077E   17316.70713435  .00002488  00000-0  10016-3 0  9994
2 41170  14.9877 159.5915 0013468 294.9930  64.8992 15.12607370105594
VELOX 2                 
1 41171U 15077F   17316.70872225  .00002028  00000-0  80972-4 0  9997
2 41171  14.9903 175.3971 0009175 245.2650 114.6715 15.10261595105456
AGGIESAT 4              
1 41313U 98067HP  17316.47999370  .00056212  00000-0  22346-3 0  9994
2 41313  51.6366 316.1564 0005050  34.2588 325.8741 15.86087640102353
HORYU-IV                
1 41340U 16012D   17316.91388449  .00000794  00000-0  54330-4 0  9995
2 41340  31.0050 242.9649 0014066 109.2346 250.9813 15.00795271 95370
OUFTI-1                 
1 41458U 16025C   17317.39057260  .00003010  00000-0  16081-3 0  9990
2 41458  98.1695   3.4546 0173501 150.2512 210.8712 15.03916070 84990
E-ST@R-II               
1 41459U 16025D   17317.36289966  .00002515  00000-0  13594-3 0  9993
2 41459  98.1656   3.3394 0173787 150.9427 210.1586 15.03684698 84985
AAUSAT 4                
1 41460U 16025E   17317.39441235  .00004310  00000-0  22804-3 0  9996
2 41460  98.1631   3.5877 0166176 148.1870 212.9493 15.04855427 85027
DIWATA-1                
1 41463U 98067HT  17317.52339684  .00011655  00000-0  11876-3 0  9991
2 41463  51.6424 350.1482 0001698  37.2465 112.3699 15.65615979 88164
FLOCK 2E'-1             
1 41479U 98067HZ  17316.50965315  .00035388  00000-0  19901-3 0  9997
2 41479  51.6348 335.9217 0003445  29.1961 330.9232 15.78871528 85207
FLOCK 2E'-3             
1 41480U 98067JA  17317.14279058  .00054680  00000-0  31684-3 0  9990
2 41480  51.6285 332.6512 0003272  33.5770 326.5437 15.78005065 85298
FLOCK 2E'-2             
1 41481U 98067JB  17317.40357183  .00317008  49698-4  87676-3 0  9994
2 41481  51.6275 326.7668 0008462  59.6499 300.5344 15.93279728 85382
FLOCK 2E'-4             
1 41482U 98067JC  17312.53569607  .16219661  12308-4  20197-2 0  9995
2 41482  51.6140 345.8340 0002361 349.1392  10.9692 16.35310899 84697
FLOCK 2E-1              
1 41483U 98067JD  17317.50524029  .00027196  00000-0  18127-3 0  9993
2 41483  51.6348 333.6752 0002136   8.9042 351.1995 15.75167160 85176
FLOCK 2E-2              
1 41484U 98067JE  17317.22108641  .00098241  00000-0  51586-3 0  9996
2 41484  51.6312 331.0171 0003324  20.9467 339.1670 15.79954687 85189
FLOCK 2E-3              
1 41486U 98067JG  17316.51497951  .00040088  00000-0  24641-3 0  9992
2 41486  51.6338 339.7842 0003118  14.2679 345.8408 15.76812273 85028
FLOCK 2E-4              
1 41487U 98067JH  17316.53578072  .00026058  00000-0  17187-3 0  9997
2 41487  51.6334 338.4135 0002353   1.4279 358.6726 15.75435676 85044
FLOCK 2E-6              
1 41563U 98067JM  17316.53027062  .00075022  00000-0  45159-3 0  9995
2 41563  51.6344 342.1269 0004847  47.1033 313.0374 15.77013051 83060
FLOCK 2E-5              
1 41564U 98067JN  17316.59975812  .00020004  00000-0  15045-3 0  9998
2 41564  51.6339 342.6118 0003066  35.7418 324.3785 15.72546870 83050
FLOCK 2E-7              
1 41565U 98067JP  17316.58248332  .00036956  00000-0  20795-3 0  9999
2 41565  51.6288 334.1311 0005478   5.2871 354.8187 15.78825015 83061
FLOCK 2E'-5             
1 41567U 98067JR  17316.55809677  .00018737  00000-0  14860-3 0  9996
2 41567  51.6353 345.3740 0005181 355.7805   4.3148 15.71325081 82881
FLOCK 2E'-6             
1 41568U 98067JS  17317.46023138  .00030699  00000-0  20695-3 0  9992
2 41568  51.6331 335.5579 0005237   9.2091 350.9003 15.74822697 83125
FLOCK 2E'-8             
1 41569U 98067JT  17316.51563705  .00038888  00000-0  21181-3 0  9996
2 41569  51.6328 333.6973 0003629   8.1185 351.9875 15.79532665 82949
FLOCK 2E-9              
1 41571U 98067JV  17317.16591249  .00147075  00000-0  65357-3 0  9997
2 41571  51.6321 328.2972 0003909  25.2201 334.8992 15.83378256 83056
FLOCK 2E-10             
1 41572U 98067JW  17316.59284830  .00033510  00000-0  19669-3 0  9992
2 41572  51.6356 335.7661 0004994   3.9863 356.1177 15.77934946 82907
FLOCK 2E-12             
1 41573U 98067JX  17317.55315038  .00040236  00000-0  21404-3 0  9998
2 41573  51.6324 328.6303 0005776  14.4650 345.6516 15.80024329 83086
FLOCK 2E-11             
1 41574U 98067JY  17317.48022465  .00036790  00000-0  19772-3 0  9995
2 41574  51.6267 328.0539 0006568  19.6901 340.4352 15.79836292 83083
FLOCK 2E'-9             
1 41575U 98067JZ  17317.45201709  .00053652  00000-0  24998-3 0  9995
2 41575  51.6296 325.5831 0007097  24.8900 335.2443 15.82756257 83100
FLOCK 2E'-10            
1 41576U 98067KA  17317.12360642  .00040437  00000-0  20232-3 0  9996
2 41576  51.6327 330.2938 0006824  24.2100 335.9222 15.81351708 82911
FLOCK 2E'-11            
1 41577U 98067KB  17316.57360631  .00034814  00000-0  19808-3 0  9992
2 41577  51.6352 334.9095 0005747   2.1789 357.9236 15.78606578 82627
FLOCK 2E'-12            
1 41578U 98067KC  17317.43499350  .00055828  00000-0  25399-3 0  9990
2 41578  51.6273 326.9910 0007094  16.6887 343.4348 15.83247392 82808
FLOCK 2P-6              
1 41606U 16040H   17316.75338432  .00003867  00000-0  16569-3 0  9995
2 41606  97.4432  18.2421 0008993 273.8167  86.2042 15.23338656 77311
FLOCK 2P-11             
1 41608U 16040K   17317.15165605  .00003887  00000-0  16675-3 0  9992
2 41608  97.4428  18.6015 0009007 272.0284  87.9921 15.23297740 77311
FLOCK 2P-2              
1 41609U 16040L   17317.16908661  .00004550  00000-0  19425-3 0  9995
2 41609  97.4431  18.6115 0008900 271.8147  88.2070 15.23368024 77293
FLOCK 2P-9              
1 41610U 16040M   17316.72075172  .00004793  00000-0  20460-3 0  9990
2 41610  97.4428  18.1218 0009167 273.7655  86.2534 15.23342309 77102
FLOCK 2P-4              
1 41611U 16040N   17316.74813097  .00004147  00000-0  17751-3 0  9991
2 41611  97.4457  18.4023 0009274 284.8845  75.1364 15.23327269 77279
FLOCK 2P-10             
1 41612U 16040P   17316.72610499  .00004650  00000-0  19862-3 0  9995
2 41612  97.4461  18.4628 0009128 284.6090  75.4135 15.23339221 77274
FLOCK 2P-8              
1 41613U 16040Q   17316.61126316  .00004459  00000-0  19062-3 0  9993
2 41613  97.4458  18.2846 0009215 284.1008  75.9205 15.23329671 77251
